OBJECT_NAME,OBJECT_ID,EPOCH,MEAN_MOTION,ECCENTRICITY,INCLINATION,RA_OF_ASC_NODE,ARG_OF_PERICENTER,MEAN_ANOMALY,EPHEMERIS_TYPE,CLASSIFICATION_TYPE,NORAD_CAT_ID,ELEMENT_SET_NO,REV_AT_EPOCH,BSTAR,MEAN_MOTION_DOT,MEAN_MOTION_DDOT
BEIDOU-2 IGSO-5 (C10),2011-073A,2026-07-02T17:30:18.330912,1.00270596,.01145273,47.6496,271.3544,222.0502,141.5350,0,U,37948,999,5329,0,-.128E-5,0
LUCH 5A (SDCM/PRN 140),2011-074B,2026-07-17T10:38:40.471872,1.00273524,.00026973,8.8289,73.3611,60.5612,128.0068,0,U,37951,999,5335,0,-.62E-6,0
BEIDOU-2 G5 (C05),2012-008A,2026-07-17T15:15:50.140800,1.00271027,.00073067,3.6480,69.5036,268.7308,244.8265,0,U,38091,999,5267,0,.47E-6,0
BEIDOU-2 M3 (C11),2012-018A,2026-07-16T04:25:36.942240,1.86229676,.00209731,55.7311,303.8980,272.2798,87.5098,0,U,38250,999,9648,0,-.76E-6,0
BEIDOU-2 M4 (C12),2012-018B,2026-07-16T15:41:25.231200,1.86229271,.0012145,55.6306,303.0936,272.2408,87.6521,0,U,38251,999,9649,0,-.78E-6,0
SES-5 (EGNOS/PRN 136),2012-036A,2026-07-17T08:09:31.609152,1.00271177,.00019414,0.0440,323.0634,153.8762,305.5707,0,U,38652,999,4475,0,.24E-6,0
BEIDOU-2 M6 (C14),2012-050B,2026-07-15T19:50:00.704256,1.86230913,.00128901,56.5693,61.9476,1.6971,358.3817,0,U,38775,999,9384,0,-.44E-6,0
GSAT-10 (GAGAN/PRN 128),2012-051B,2026-07-17T15:22:41.982816,1.00272763,.00074731,0.0845,264.3661,190.5163,154.2437,0,U,38779,999,5040,0,-.174E-5,0
GPS BIIF-3  (PRN 24),2012-053A,2026-07-16T17:33:28.314144,2.00567949,.01821223,53.5898,142.3889,66.2502,295.6136,0,U,38833,999,10003,0,.15E-6,0
GSAT0103 (GALILEO-FM3),2012-055A,2026-07-16T05:14:38.805216,1.70473424,.0003594,55.8227,100.7486,314.9576,45.0469,0,U,38857,999,8550,0,-.26E-6,0
BEIDOU-2 G6 (C02),2012-059A,2026-07-17T15:22:56.959392,1.00273311,.00087366,4.4967,73.1916,327.2293,209.7710,0,U,38953,999,5021,0,-.187E-5,0
LUCH 5B (SDCM/PRN 125),2012-061A,2026-07-17T09:46:21.927936,1.00270280,.00038606,10.5476,49.5786,147.7115,228.2385,0,U,38977,999,4991,0,-.151E-5,0
COSMOS 2485 (747),2013-019A,2026-07-16T22:37:23.358144,2.13103147,.00226264,65.4360,72.6065,231.0294,128.8442,0,U,39155,999,10291,0,-.19E-6,0
GPS BIIF-4  (PRN 27),2013-023A,2026-07-17T02:21:01.699776,2.00563335,.01413861,54.4813,267.7538,51.1133,310.2153,0,U,39166,999,9648,0,-.25E-6,0
IRNSS-1A,2013-034A,2026-07-10T17:17:25.712736,1.00281941,.0017567,35.7704,63.5328,183.4462,356.2994,0,U,39199,999,4760,0,.47E-6,0
GPS BIIF-5  (PRN 30),2014-008A,2026-07-15T14:29:46.849344,2.00561576,.008409,53.6578,148.1607,231.5482,127.6544,0,U,39533,999,9025,0,.11E-6,0
ASTRA 5B (EGNOS/PRN 123),2014-011B,2026-07-17T15:05:43.947168,1.00269421,.00019629,0.0715,304.8570,179.4403,61.0337,0,U,39617,999,4497,0,.127E-5,0
COSMOS 2492 (754),2014-012A,2026-07-16T10:22:23.706048,2.13103163,.00102943,65.2787,312.9423,317.3344,42.6017,0,U,39620,999,9586,0,-.64E-6,0
IRNSS-1B,2014-017A,2026-07-17T04:39:38.704608,1.00276401,.00222645,28.8725,239.8858,191.8676,348.3411,0,U,39635,999,4509,0,.121E-5,0
LUCH 5V (SDCM/PRN 141),2014-023A,2026-07-17T15:26:04.159680,1.00272779,.00020855,5.2063,69.4253,84.8242,107.4569,0,U,39727,999,4466,0,-.28E-5,0
GPS BIIF-6  (PRN 06),2014-026A,2026-07-17T09:01:17.023872,2.00558742,.00381517,56.4820,330.3426,325.7274,34.0273,0,U,39741,999,8914,0,-.99E-6,0
COSMOS 2500 (755),2014-032A,2026-07-16T03:10:35.130720,2.13105751,.00083134,65.2141,312.6974,190.7170,169.2811,0,U,40001,999,9407,0,-.63E-6,0
GPS BIIF-7  (PRN 09),2014-045A,2026-07-16T11:17:22.837344,2.00560343,.00344366,55.3721,87.2982,118.3856,242.0173,0,U,40105,999,8666,0,-.25E-6,0
GSAT0201 (GALILEO 5),2014-050A,2026-07-15T23:35:44.117664,1.85519415,.16787096,48.8430,272.2541,180.5497,179.3011,0,U,40128,999,7885,0,-.37E-6,0
GSAT0202 (GALILEO 6),2014-050B,2026-07-16T18:39:41.833728,1.85520382,.1679996,48.8597,271.3072,181.2736,178.2966,0,U,40129,999,8103,0,-.44E-6,0
IRNSS-1C,2014-061A,2026-07-17T15:22:49.471104,1.00271939,.00220197,6.5924,88.3519,5.7331,155.1277,0,U,40269,999,4299,0,-.174E-5,0
GPS BIIF-8  (PRN 03),2014-068A,2026-07-16T20:05:44.125728,2.00553316,.00674199,57.0080,29.8134,72.3586,288.4183,0,U,40294,999,8580,0,-.78E-6,0
COSMOS 2501 (702K),2014-075A,2026-07-14T01:09:44.871264,2.13101105,.0022586,63.6185,189.4424,212.6579,147.2095,0,U,40315,999,9042,0,.65E-6,0
GPS BIIF-9  (PRN 26),2015-013A,2026-07-17T11:27:29.889792,2.00549528,.01104496,53.1659,202.9248,40.4076,320.4163,0,U,40534,999,8243,0,.41E-6,0
GSAT0203 (GALILEO 7),2015-017A,2026-07-17T03:05:03.050592,1.70476213,.00027019,56.7761,340.7804,254.9804,104.9775,0,U,40544,999,6971,0,-.104E-5,0
GSAT0204 (GALILEO 8),2015-017B,2026-07-16T19:08:49.645248,1.70475714,.00028295,56.7840,340.8081,234.6469,125.3139,0,U,40545,999,3275,0,-.103E-5,0
