BEIDOU-2 IGSO-5         
1 37948U 11073A   26183.72937883 -.00000128  00000+0  00000+0 0  9990
2 37948  47.6496 271.3544 0114527 222.0502 141.5350  1.00270596 53296
LUCH-5A                 
1 37951U 11074B   26198.44352398 -.00000062  00000+0  00000+0 0  9999
2 37951   8.8289  73.3611 0002697  60.5612 128.0068  1.00273524 53352
BEIDOU-2 G5             
1 38091U 12008A   26198.63599700  .00000047  00000+0  00000+0 0  9996
2 38091   3.6480  69.5036 0007306 268.7308 244.8265  1.00271027 52674
BEIDOU-2 M3             
1 38250U 12018A   26197.18445535 -.00000076  00000+0  00000+0 0  9992
2 38250  55.7311 303.8980 0020973 272.2798  87.5098  1.86229676 96482
BEIDOU-2 M4             
1 38251U 12018B   26197.65376425 -.00000078  00000+0  00000+0 0  9998
2 38251  55.6306 303.0936 0012145 272.2408  87.6521  1.86229271 96493
SES-5                   
1 38652U 12036A   26198.33994918  .00000024  00000+0  00000+0 0  9992
2 38652   0.0440 323.0634 0001941 153.8762 305.5707  1.00271177 44755
BEIDOU-2 M6             
1 38775U 12050B   26196.82639704 -.00000044  00000+0  00000+0 0  9998
2 38775  56.5693  61.9476 0012890   1.6971 358.3817  1.86230913 93845
GSAT-10                 
1 38779U 12051B   26198.64076369 -.00000174  00000+0  00000+0 0  9991
2 38779   0.0845 264.3661 0007473 190.5163 154.2437  1.00272763 50400
NAVSTAR 67 (USA 239)    
1 38833U 12053A   26197.73157771  .00000015  00000+0  00000+0 0  9993
2 38833  53.5898 142.3889 0182122  66.2502 295.6136  2.00567949100035
GSAT0103 (GALILEO-FM3)  
1 38857U 12055A   26197.21850469 -.00000026  00000+0  00000+0 0  9991
2 38857  55.8227 100.7486 0003594 314.9576  45.0469  1.70473424 85502
BEIDOU-2 G6             
1 38953U 12059A   26198.64093703 -.00000187  00000+0  00000+0 0  9998
2 38953   4.4967  73.1916 0008736 327.2293 209.7710  1.00273311 50211
LUCH-5B                 
1 38977U 12061A   26198.40719824 -.00000151  00000+0  00000+0 0  9991
2 38977  10.5476  49.5786 0003860 147.7115 228.2385  1.00270280 49914
COSMOS 2485 [GLONASS-M] 
1 39155U 13019A   26197.94263146 -.00000019  00000+0  00000+0 0  9996
2 39155  65.4360  72.6065 0022626 231.0294 128.8442  2.13103147102918
NAVSTAR 68 (USA 242)    
1 39166U 13023A   26198.09793634 -.00000025  00000+0  00000+0 0  9997
2 39166  54.4813 267.7538 0141386  51.1133 310.2153  2.00563335 96486
IRNSS-1A                
1 39199U 13034A   26191.72043649  .00000047  00000+0  00000+0 0  9995
2 39199  35.7704  63.5328 0017567 183.4462 356.2994  1.00281941 47601
NAVSTAR 69 (USA 248)    
1 39533U 14008A   26196.60401446  .00000011  00000+0  00000+0 0  9995
2 39533  53.6578 148.1607 0084090 231.5482 127.6544  2.00561576 90259
ASTRA 5B                
1 39617U 14011B   26198.62898087  .00000127  00000+0  00000+0 0  9995
2 39617   0.0715 304.8570 0001962 179.4403  61.0337  1.00269421 44973
COSMOS 2492 [GLONASS-M] 
1 39620U 14012A   26197.43221882 -.00000064  00000+0  00000+0 0  9992
2 39620  65.2787 312.9423 0010294 317.3344  42.6017  2.13103163 95860
IRNSS-1B                
1 39635U 14017A   26198.19419797  .00000121  00000+0  00000+0 0  9994
2 39635  28.8725 239.8858 0022264 191.8676 348.3411  1.00276401 45090
LUCH-5V                 
1 39727U 14023A   26198.64310370 -.00000280  00000+0  00000+0 0  9997
2 39727   5.2063  69.4253 0002085  84.8242 107.4569  1.00272779 44665
NAVSTAR 70 (USA 251)    
1 39741U 14026A   26198.37589148 -.00000099  00000+0  00000+0 0  9995
2 39741  56.4820 330.3426 0038151 325.7274  34.0273  2.00558742 89144
COSMOS 2500 [GLONASS-M] 
1 40001U 14032A   26197.13235105 -.00000063  00000+0  00000+0 0  9998
2 40001  65.2141 312.6974 0008313 190.7170 169.2811  2.13105751 94071
NAVSTAR 71 (USA 256)    
1 40105U 14045A   26197.47040321 -.00000025  00000+0  00000+0 0  9996
2 40105  55.3721  87.2982 0034436 118.3856 242.0173  2.00560343 86661
GSAT0201 (GALILEO 5)    
1 40128U 14050A   26196.98314951 -.00000037  00000+0  00000+0 0  9998
2 40128  48.8430 272.2541 1678709 180.5497 179.3011  1.85519415 78858
GSAT0202 (GALILEO 6)    
1 40129U 14050B   26197.77756752 -.00000044  00000+0  00000+0 0  9994
2 40129  48.8597 271.3072 1679996 181.2736 178.2966  1.85520382 81031
IRNSS-1C                
1 40269U 14061A   26198.64085036 -.00000174  00000+0  00000+0 0  9992
2 40269   6.5924  88.3519 0022019   5.7331 155.1277  1.00271939 42990
NAVSTAR 72 (USA 258)    
1 40294U 14068A   26197.83731627 -.00000078  00000+0  00000+0 0  9994
2 40294  57.0080  29.8134 0067419  72.3586 288.4183  2.00553316 85806
COSMOS 2501 [GLONASS-K] 
1 40315U 14075A   26195.04843601  .00000065  00000+0  00000+0 0  9998
2 40315  63.6185 189.4424 0022586 212.6579 147.2095  2.13101105 90428
NAVSTAR 73 (USA 260)    
1 40534U 15013A   26198.47742928  .00000041  00000+0  00000+0 0  9998
2 40534  53.1659 202.9248 0110449  40.4076 320.4163  2.00549528 82435
GSAT0203 (GALILEO 7)    
1 40544U 15017A   26198.12850753 -.00000104  00000+0  00000+0 0  9992
2 40544  56.7761 340.7804 0002701 254.9804 104.9775  1.70476213 69716
GSAT0204 (GALILEO 8)    
1 40545U 15017B   26197.79779682 -.00000103  00000+0  00000+0 0  9995
2 40545  56.7840 340.8081 0002829 234.6469 125.3139  1.70475714 32756
